"Jupiter LXVII:S 2017 J 6" "Sol/Jupiter"
{
	Class	"minormoon"
	Mesh	"asteroid.cms"
	Texture	"asteroid.*"
	Radius	1
	OrbitFrame
	{
		EclipticJ2000	{ Center "Sol/Jupiter" }
	}
	EllipticalOrbit
	{
		Epoch	2451897.5  # 2000 Dec 19
		Period	704.289772
		SemiMajorAxis	22819195.173
		Eccentricity	0.241575
		Inclination	144.931317
		AscendingNode	320.374880
		ArgOfPericenter	18.221051
		MeanAnomaly	323.849159
	}
	UniformRotation
	{
		Period	10
	}
	LunarLambert	0.5
	GeomAlbedo	0.04
	InfoURL	"https://en.wikipedia.org/wiki/Jupiter_LXVII"
}

"Aitne:Jupiter XXXI:S 2001 J 11" "Sol/Jupiter"
{
	Class	"minormoon"
	Mesh	"asteroid.cms"
	Texture	"asteroid.*"
	Color	[ 1.0 0.94 0.88 ]
	BlendTexture	true
	Radius	1.5
	OrbitFrame
	{
		EclipticJ2000	{ Center "Sol/Jupiter" }
	}
	EllipticalOrbit
	{
		Epoch	2451897.5  # 2000 Dec 19
		Period	706.741456
		SemiMajorAxis	22872121.354
		Eccentricity	0.202910
		Inclination	165.003206
		AscendingNode	6.871695
		ArgOfPericenter	91.907849
		MeanAnomaly	279.032108
	}
	UniformRotation
	{
		Period	10
	}
	LunarLambert	0.5
	GeomAlbedo	0.04
	InfoURL	"https://en.wikipedia.org/wiki/Aitne_(moon)"
}

"Carme:Jupiter XI" "Sol/Jupiter"
{
	Class	"minormoon"
	Mesh	"asteroid.cms"
	Texture	"asteroid.*"
	Color	[ 1.0 0.94 0.88 ]
	BlendTexture	true
	Radius	23
	OrbitFrame
	{
		EclipticJ2000	{ Center "Sol/Jupiter" }
	}
	EllipticalOrbit
	{
		Epoch	2451897.5  # 2000 Dec 19
		Period	707.952880
		SemiMajorAxis	22898250.584
		Eccentricity	0.229726
		Inclination	165.107057
		AscendingNode	124.360040
		ArgOfPericenter	22.592350
		MeanAnomaly	59.718480
	}
	UniformRotation
	{
		Period	10
	}
	LunarLambert	0.5
	GeomAlbedo	0.04
	InfoURL	"https://en.wikipedia.org/wiki/Carme_(moon)"
}

"Callirrhoe:Jupiter XVII:S 1999 J 1:1999 UX18" "Sol/Jupiter"
{
	Class	"minormoon"
	Mesh	"asteroid.cms"
	Texture	"asteroid.*"
	Color	[ 1.0 0.94 0.88 ]
	BlendTexture	true
	Radius	3.5
	OrbitFrame
	{
		EclipticJ2000	{ Center "Sol/Jupiter" }
	}
	EllipticalOrbit
	{
		Epoch	2451897.5  # 2000 Dec 19
		Period	708.864416
		SemiMajorAxis	22917901.709
		Eccentricity	0.186381
		Inclination	143.346547
		AscendingNode	282.953296
		ArgOfPericenter	65.606739
		MeanAnomaly	231.638431
	}
	UniformRotation
	{
		Period	10
	}
	LunarLambert	0.5
	GeomAlbedo	0.04
	InfoURL	"https://en.wikipedia.org/wiki/Callirrhoe_(moon)"
}

"Erinome:Jupiter XXV:S 2000 J 4" "Sol/Jupiter"
{
	Class	"minormoon"
	Mesh	"asteroid.cms"
	Texture	"asteroid.*"
	Color	[ 1.0 0.94 0.88 ]
	BlendTexture	true
	Radius	1.5
	OrbitFrame
	{
		EclipticJ2000	{ Center "Sol/Jupiter" }
	}
	EllipticalOrbit
	{
		Epoch	2451897.5  # 2000 Dec 19
		Period	710.289387
		SemiMajorAxis	22948604.726
		Eccentricity	0.317342
		Inclination	161.349922
		AscendingNode	319.227072
		ArgOfPericenter	2.980678
		MeanAnomaly	85.078396
	}
	UniformRotation
	{
		Period	10
	}
	LunarLambert	0.5
	GeomAlbedo	0.04
	InfoURL	"https://en.wikipedia.org/wiki/Erinome_(moon)"
}

"Pasithee:Jupiter XXXVIII:S 2001 J 6" "Sol/Jupiter"
{
	Class	"minormoon"
	Mesh	"asteroid.cms"
	Texture	"asteroid.*"
	Color	[ 1.0 0.94 0.88 ]
	BlendTexture	true
	Radius	1
	OrbitFrame
	{
		EclipticJ2000	{ Center "Sol/Jupiter" }
	}
	EllipticalOrbit
	{
		Epoch	2451897.5  # 2000 Dec 19
		Period	715.539943
		SemiMajorAxis	23061558.672
		Eccentricity	0.263838
		Inclination	163.113637
		AscendingNode	327.565309
		ArgOfPericenter	223.097872
		MeanAnomaly	40.058703
	}
	UniformRotation
	{
		Period	10
	}
	LunarLambert	0.5
	GeomAlbedo	0.04
	InfoURL	"https://en.wikipedia.org/wiki/Pasithee_(moon)"
}

"Eirene:Jupiter LVII:S 2003 J 5" "Sol/Jupiter"
{
	Class	"minormoon"
	Mesh	"asteroid.cms"
	Texture	"asteroid.*"
	Color	[ 1.0 0.94 0.88 ]
	BlendTexture	true
	Radius	2
	OrbitFrame
	{
		EclipticJ2000	{ Center "Sol/Jupiter" }
	}
	EllipticalOrbit
	{
		Epoch	2451897.5  # 2000 Dec 19
		Period	715.700860
		SemiMajorAxis	23065016.052
		Eccentricity	0.227857
		Inclination	165.611006
		AscendingNode	183.487838
		ArgOfPericenter	75.510720
		MeanAnomaly	173.076258
	}
	UniformRotation
	{
		Period	10
	}
	LunarLambert	0.5
	GeomAlbedo	0.04
	InfoURL	"https://en.wikipedia.org/wiki/Eirene_(moon)"
}

"S 2003 J 24" "Sol/Jupiter"
{
	Class	"minormoon"
	Mesh	"asteroid.cms"
	Texture	"asteroid.*"
	Radius	1.5
	OrbitFrame
	{
		EclipticJ2000	{ Center "Sol/Jupiter" }
	}
	EllipticalOrbit
	{
		Epoch	2459600.5  # 2022 Jan 21
		Period	716.71
		SemiMajorAxis	23088000
		Eccentricity	0.2544888
		Inclination	162.10541
		AscendingNode	292.24546
		ArgOfPericenter	194.55878
		MeanAnomaly	152.20189
	}
	UniformRotation
	{
		Period	10
	}
	LunarLambert	0.5
	GeomAlbedo	0.04
	InfoURL	"https://en.wikipedia.org/wiki/S/2003_J_24"
}

"Sinope:Jupiter IX" "Sol/Jupiter"
{
	Class	"minormoon"
	Mesh	"asteroid.cms"
	Texture	"asteroid.*"
	Color	[ 1.0 0.82 0.64 ]
	BlendTexture	true
	Radius	19
	OrbitFrame
	{
		EclipticJ2000	{ Center "Sol/Jupiter" }
	}
	EllipticalOrbit
	{
		Epoch	2451897.5  # 2000 Dec 19
		Period	720.794567
		SemiMajorAxis	23174323.848
		Eccentricity	0.217313
		Inclination	153.871116
		AscendingNode	313.636136
		ArgOfPericenter	346.793901
		MeanAnomaly	342.285462
	}
	UniformRotation
	{
		Period	10
	}
	LunarLambert	0.5
	GeomAlbedo	0.04
	InfoURL	"https://en.wikipedia.org/wiki/Sinope_(moon)"
}

"Eukelade:Jupiter XLVII:S 2003 J 1" "Sol/Jupiter"
{
	Class	"minormoon"
	Mesh	"asteroid.cms"
	Texture	"asteroid.*"
	Color	[ 1.0 0.94 0.88 ]
	BlendTexture	true
	Radius	2
	OrbitFrame
	{
		EclipticJ2000	{ Center "Sol/Jupiter" }
	}
	EllipticalOrbit
	{
		Epoch	2451897.5  # 2000 Dec 19
		Period	720.949231
		SemiMajorAxis	23177638.812
		Eccentricity	0.228897
		Inclination	164.634748
		AscendingNode	202.126604
		ArgOfPericenter	310.889007
		MeanAnomaly	22.549574
	}
	UniformRotation
	{
		Period	10
	}
	LunarLambert	0.5
	GeomAlbedo	0.04
	InfoURL	"https://en.wikipedia.org/wiki/Eukelade_(moon)"
}

"Isonoe:Jupiter XXVI:S 2000 J 6" "Sol/Jupiter"
{
	Class	"minormoon"
	Mesh	"asteroid.cms"
	Texture	"asteroid.*"
	Color	[ 1.0 0.94 0.88 ]
	BlendTexture	true
	Radius	2
	OrbitFrame
	{
		EclipticJ2000	{ Center "Sol/Jupiter" }
	}
	EllipticalOrbit
	{
		Epoch	2451897.5  # 2000 Dec 19
		Period	723.929016
		SemiMajorAxis	23241459.186
		Eccentricity	0.290366
		Inclination	165.112993
		AscendingNode	144.478709
		ArgOfPericenter	137.967230
		MeanAnomaly	293.427254
	}
	UniformRotation
	{
		Period	10
	}
	LunarLambert	0.5
	GeomAlbedo	0.04
	InfoURL	"https://en.wikipedia.org/wiki/Isonoe_(moon)"
}

"S 2003 J 4" "Sol/Jupiter"
{
	Class	"minormoon"
	Mesh	"asteroid.cms"
	Texture	"asteroid.*"
	Radius	1
	OrbitFrame
	{
		EclipticJ2000	{ Center "Sol/Jupiter" }
	}
	EllipticalOrbit
	{
		Epoch	2451897.5  # 2000 Dec 19
		Period	725.940799
		SemiMajorAxis	23284497.420
		Eccentricity	0.254481
		Inclination	144.507212
		AscendingNode	179.737520
		ArgOfPericenter	204.177990
		MeanAnomaly	45.248023
	}
	UniformRotation
	{
		Period	10
	}
	LunarLambert	0.5
	GeomAlbedo	0.04
	InfoURL	"https://en.wikipedia.org/wiki/S/2003_J_4"
}

"Autonoe:Jupiter XXVIII:S 2001 J 1" "Sol/Jupiter"
{
	Class	"minormoon"
	Mesh	"asteroid.cms"
	Texture	"asteroid.*"
	Radius	2
	OrbitFrame
	{
		EclipticJ2000	{ Center "Sol/Jupiter" }
	}
	EllipticalOrbit
	{
		Epoch	2451897.5  # 2000 Dec 19
		Period	730.374825
		SemiMajorAxis	23379215.392
		Eccentricity	0.384889
		Inclination	152.167578
		AscendingNode	272.237874
		ArgOfPericenter	78.483133
		MeanAnomaly	287.498905
	}
	UniformRotation
	{
		Period	10
	}
	LunarLambert	0.5
	GeomAlbedo	0.04
	InfoURL	"https://en.wikipedia.org/wiki/Autonoe_(moon)"
}

"Herse:Jupiter L:S 2003 J 17" "Sol/Jupiter"
{
	Class	"minormoon"
	Mesh	"asteroid.cms"
	Texture	"asteroid.*"
	Color	[ 1.0 0.94 0.88 ]
	BlendTexture	true
	Radius	1
	OrbitFrame
	{
		EclipticJ2000	{ Center "Sol/Jupiter" }
	}
	EllipticalOrbit
	{
		Epoch	2451897.5  # 2000 Dec 19
		Period	730.684665
		SemiMajorAxis	23385826.894
		Eccentricity	0.264374
		Inclination	162.552920
		AscendingNode	304.051989
		ArgOfPericenter	327.586628
		MeanAnomaly	322.561753
	}
	UniformRotation
	{
		Period	10
	}
	LunarLambert	0.5
	GeomAlbedo	0.04
	InfoURL	"https://en.wikipedia.org/wiki/Herse_(moon)"
}

"Pasiphae:Jupiter VIII:1908 CJ" "Sol/Jupiter"
{
	Class	"minormoon"
	Mesh	"asteroid.cms"
	Texture	"asteroid.*"
	Radius	29
	OrbitFrame
	{
		EclipticJ2000	{ Center "Sol/Jupiter" }
	}
	EllipticalOrbit
	{
		Epoch	2451897.5  # 2000 Dec 19
		Period	732.361796
		SemiMajorAxis	23421597.993
		Eccentricity	0.386853
		Inclination	140.278187
		AscendingNode	322.751488
		ArgOfPericenter	172.852154
		MeanAnomaly	91.955945
	}
	UniformRotation
	{
		Period	10
	}
	LunarLambert	0.5
	GeomAlbedo	0.04
	InfoURL	"https://en.wikipedia.org/wiki/Pasiphae_(moon)"
}

"S 2003 J 10" "Sol/Jupiter"
{
	Class	"minormoon"
	Mesh	"asteroid.cms"
	Texture	"asteroid.*"
	Color	[ 1.0 0.94 0.88 ]
	BlendTexture	true
	Radius	1
	OrbitFrame
	{
		EclipticJ2000	{ Center "Sol/Jupiter" }
	}
	EllipticalOrbit
	{
		Epoch	2451897.5  # 2000 Dec 19
		Period	732.387354
		SemiMajorAxis	23422142.906
		Eccentricity	0.544031
		Inclination	159.303398
		AscendingNode	160.744688
		ArgOfPericenter	184.205377
		MeanAnomaly	68.927982
	}
	UniformRotation
	{
		Period	10
	}
	LunarLambert	0.5
	GeomAlbedo	0.04
	InfoURL	"https://en.wikipedia.org/wiki/S/2003_J_10"
}

